NORAD_CAT_ID,OBJECT_NAME,OBJECT_TYPE,EPOCH,MEAN_MOTION,ECCENTRICITY,INCLINATION,RA_OF_ASC_NODE,ARG_OF_PERICENTER,MEAN_ANOMALY,BSTAR,MEAN_MOTION_DOT,MEAN_MOTION_DDOT,TLE_LINE0,TLE_LINE1,TLE_LINE2,SEMIMAJOR_AXIS,PERIOD,APOGEE,PERIGEE,DECAYED
53781.0,STARLINK-4462,PAYLOAD,2023-02-26 19:13:44,15.08856717,0.000128,53.2184,203.128,80.1258,279.9879,0.00016474,2.336e-05,0.0,0 STARLINK-4462,1 53781U 22111J   23057.80120994  .00002336  00000-0  16474-3 0  9990,2 53781  53.2184 203.1280 0001280  80.1258 279.9879 15.08856717 25781,6917.829,95.436,540.58,538.809,0.0
53781.0,STARLINK-4462,PAYLOAD,2023-02-27 09:32:14,15.08835219,0.00013,53.2185,200.4516,87.1404,272.9737,4.7587e-05,4.69e-06,0.0,0 STARLINK-4462,1 53781U 22111J   23058.39738646  .00000469  00000-0  47587-4 0  9999,2 53781  53.2185 200.4516 0001300  87.1404 272.9737 15.08835219 25877,6917.895,95.438,540.659,538.861,0.0
53781.0,STARLINK-4462,PAYLOAD,2023-02-27 12:43:00,15.0884104,0.0001247,53.2181,199.8576,96.3827,263.7308,7.8133e-05,9.56e-06,0.0,0 STARLINK-4462,1 53781U 22111J   23058.52986156  .00000956  00000-0  78133-4 0  9997,2 53781  53.2181 199.8576 0001247  96.3827 263.7308 15.08841040 25894,6917.877,95.437,540.605,538.88,0.0
53781.0,STARLINK-4462,PAYLOAD,2023-02-27 14:18:23,15.08841601,0.000144,53.2192,199.5627,92.6664,267.4494,7.199e-05,8.58e-06,0.0,0 STARLINK-4462,1 53781U 22111J   23058.59610177  .00000858  00000-0  71990-4 0  9996,2 53781  53.2192 199.5627 0001440  92.6664 267.4494 15.08841601 26715,6917.875,95.437,540.737,538.744,0.0
53781.0,STARLINK-4462,PAYLOAD,2023-02-28 12:33:48,15.08824323,0.0001507,53.2184,195.3936,97.8129,262.3034,-0.00022012,-3.788e-05,0.0,0 STARLINK-4462,1 53781U 22111J   23059.52348377 -.00003788  00000-0 -22012-3 0  9997,2 53781  53.2184 195.3936 0001507  97.8129 262.3034 15.08824323 26851,6917.928,95.439,540.836,538.751,0.0
53781.0,STARLINK-4462,PAYLOAD,2023-02-28 14:09:12,15.08824348,0.0001508,53.2186,195.096,98.313,261.8033,-0.00021838,-3.76e-05,0.0,0 STARLINK-4462,1 53781U 22111J   23059.58972416 -.00003760  00000-0 -21838-3 0  9995,2 53781  53.2186 195.0960 0001508  98.3130 261.8033 15.08824348 26058,6917.928,95.439,540.836,538.75,0.0
53781.0,STARLINK-4462,PAYLOAD,2023-02-28 18:55:21,15.08832765,0.0001158,53.219,194.2064,84.9512,275.1613,-0.00021335,-3.681e-05,0.0,0 STARLINK-4462,1 53781U 22111J   23059.78844062 -.00003681  00000-0 -21335-3 0  9996,2 53781  53.2190 194.2064 0001158  84.9512 275.1613 15.08832765 26891,6917.903,95.438,540.569,538.966,0.0
53781.0,STARLINK-4462,PAYLOAD,2023-03-01 18:46:07,15.08844453,0.0001302,53.2199,189.7474,89.9782,270.1359,4.3833e-05,4.1e-06,0.0,0 STARLINK-4462,1 53781U 22111J   23060.78203182  .00000410  00000-0  43833-4 0  9993,2 53781  53.2199 189.7474 0001302  89.9782 270.1359 15.08844453 26236,6917.867,95.437,540.632,538.831,0.0
53781.0,STARLINK-4462,PAYLOAD,2023-03-02 01:07:40,15.08841147,0.000128,53.2197,188.5563,77.7526,282.361,-0.00011712,-2.151e-05,0.0,0 STARLINK-4462,1 53781U 22111J   23061.04699775 -.00002151  00000-0 -11712-3 0  9996,2 53781  53.2197 188.5563 0001280  77.7526 282.3610 15.08841147 26272,6917.877,95.437,540.627,538.856,0.0
53781.0,STARLINK-4462,PAYLOAD,2023-03-02 18:36:54,15.08848979,0.000113,53.2194,185.2855,84.8393,275.2728,0.00026733,3.97e-05,0.0,0 STARLINK-4462,1 53781U 22111J   23061.77562569  .00003970  00000-0  26733-3 0  9993,2 53781  53.2194 185.2855 0001130  84.8393 275.2728 15.08848979 27195,6917.853,95.437,540.5,538.936,0.0
53781.0,STARLINK-4462,PAYLOAD,2023-03-03 10:30:46,15.08847827,0.0001262,53.2197,182.3114,101.8611,258.2523,4.4445e-05,4.2e-06,0.0,0 STARLINK-4462,1 53781U 22111J   23062.43803406  .00000420  00000-0  44445-4 0  9993,2 53781  53.2197 182.3114 0001262 101.8611 258.2523 15.08847827 26489,6917.856,95.437,540.594,538.848,0.0
53781.0,STARLINK-4462,PAYLOAD,2023-03-03 12:06:09,15.08848269,0.00013,53.2195,182.0179,80.839,279.2749,5.8876e-05,6.49e-06,0.0,0 STARLINK-4462,1 53781U 22111J   23062.50427326  .00000649  00000-0  58876-4 0  9990,2 53781  53.2195 182.0179 0001300  80.8390 279.2749 15.08848269 27304,6917.855,95.437,540.619,538.821,0.0
53781.0,STARLINK-4462,PAYLOAD,2023-03-03 13:41:31,15.08865371,0.0001578,53.2198,181.7194,102.2951,257.8218,0.00017399,2.484e-05,0.0,0 STARLINK-4462,1 53781U 22111J   23062.57049864  .00002484  00000-0  17399-3 0  9997,2 53781  53.2198 181.7194 0001578 102.2951 257.8218 15.08865371 26506,6917.803,95.436,540.759,538.576,0.0
53781.0,STARLINK-4462,PAYLOAD,2023-03-03 20:03:01,15.08883622,6.61e-05,53.2179,180.5275,96.6591,263.4477,0.00030734,4.613e-05,0.0,0 STARLINK-4462,1 53781U 22111J   23062.83543581  .00004613  00000-0  30734-3 0  9995,2 53781  53.2179 180.5275 0000661  96.6591 263.4477 15.08883622 26543,6917.747,95.435,540.069,539.155,0.0
53781.0,STARLINK-4462,PAYLOAD,2023-03-04 07:10:49,15.0881287,0.000105,53.2199,178.4451,77.7745,282.3365,-0.00020074,-3.479e-05,0.0,0 STARLINK-4462,1 53781U 22111J   23063.29917915 -.00003479  00000-0 -20074-3 0  9999,2 53781  53.2199 178.4451 0001050  77.7745 282.3365 15.08812870 26612,6917.963,95.439,540.555,539.102,0.0
53781.0,STARLINK-4462,PAYLOAD,2023-03-04 11:56:57,15.08834999,0.0001501,53.2193,177.5583,84.219,275.8973,-0.00010287,-1.925e-05,0.0,0 STARLINK-4462,1 53781U 22111J   23063.49788383 -.00001925  00000-0 -10287-3 0  9995,2 53781  53.2193 177.5583 0001501  84.2190 275.8973 15.08834999 26641,6917.896,95.438,540.799,538.722,0.0
53781.0,STARLINK-4462,PAYLOAD,2023-03-04 16:43:04,15.08858648,0.0001334,53.2191,176.6628,92.3987,267.7158,-2.724e-05,-7.22e-06,0.0,0 STARLINK-4462,1 53781U 22111J   23063.69658451 -.00000722  00000-0 -27240-4 0  9991,2 53781  53.2191 176.6628 0001334  92.3987 267.7158 15.08858648 26672,6917.823,95.436,540.611,538.766,0.0
53781.0,STARLINK-4462,PAYLOAD,2023-03-05 00:40:01,15.08841601,0.0001255,53.219,175.1756,90.7105,269.4031,-0.00017351,-3.048e-05,0.0,0 STARLINK-4462,1 53781U 22111J   23064.02779792 -.00003048  00000-0 -17351-3 0  9996,2 53781  53.2190 175.1756 0001255  90.7105 269.4031 15.08841601 26729,6917.875,95.437,540.609,538.872,0.0
53781.0,STARLINK-4462,PAYLOAD,2023-03-06 00:30:47,15.08853973,0.000127,53.2191,170.7152,95.7484,264.3653,-0.00014102,-2.532e-05,0.0,0 STARLINK-4462,1 53781U 22111J   23065.02138810 -.00002532  00000-0 -14102-3 0  9995,2 53781  53.2191 170.7152 0001270  95.7484 264.3653 15.08853973 26878,6917.838,95.437,540.581,538.824,0.0
53781.0,STARLINK-4462,PAYLOAD,2023-03-06 11:38:30,15.08839229,0.0001621,53.2194,168.6365,88.0198,272.0979,0.00021912,3.201e-05,0.0,0 STARLINK-4462,1 53781U 22111J   23065.48506982  .00003201  00000-0  21912-3 0  9993,2 53781  53.2194 168.6365 0001621  88.0198 272.0979 15.08839229 26943,6917.883,95.438,540.869,538.626,0.0
53781.0,STARLINK-4462,PAYLOAD,2023-03-06 16:24:37,15.08866134,0.0001507,53.2189,167.7424,105.7716,254.3443,0.00027391,4.077e-05,0.0,0 STARLINK-4462,1 53781U 22111J   23065.68376702  .00004077  00000-0  27391-3 0  9999,2 53781  53.2189 167.7424 0001507 105.7716 254.3443 15.08866134 26976,6917.801,95.436,540.708,538.623,0.0
53781.0,STARLINK-4462,PAYLOAD,2023-03-07 00:21:36,15.08825693,0.0001733,53.2196,166.255,99.7408,260.378,-0.00018871,-3.289e-05,0.0,0 STARLINK-4462,1 53781U 22111J   23066.01500761 -.00003289  00000-0 -18871-3 0  9990,2 53781  53.2196 166.2550 0001733  99.7408 260.3780 15.08825693 27022,6917.924,95.438,540.988,538.59,0.0
53781.0,STARLINK-4462,PAYLOAD,2023-03-07 16:15:27,15.0884189,0.0001946,53.2164,163.2771,123.3377,236.7802,-3.2507e-05,-8.06e-06,0.0,0 STARLINK-4462,1 53781U 22111J   23066.67739834 -.00000806  00000-0 -32507-4 0  9992,2 53781  53.2164 163.2771 0001946 123.3377 236.7802 15.08841890 27124,6917.875,95.437,541.086,538.393,0.0
53781.0,STARLINK-4462,PAYLOAD,2023-03-08 09:44:42,15.08835348,0.0001368,53.2178,160.0128,94.0857,266.0292,-6.5536e-05,-1.331e-05,0.0,0 STARLINK-4462,1 53781U 22111J   23067.40604523 -.00001331  00000-0 -65536-4 0  9992,2 53781  53.2178 160.0128 0001368  94.0857 266.0292 15.08835348 27237,6917.895,95.438,540.706,538.813,0.0
53781.0,STARLINK-4462,PAYLOAD,2023-03-08 16:06:13,15.0886064,0.0001719,53.2191,158.8207,138.7673,221.3449,-6.2287e-05,-1.28e-05,0.0,0 STARLINK-4462,1 53781U 22111J   23067.67098581 -.00001280  00000-0 -62287-4 0  9995,2 53781  53.2191 158.8207 0001719 138.7673 221.3449 15.08860640 28082,6917.817,95.436,540.871,538.493,0.0
53781.0,STARLINK-4462,PAYLOAD,2023-03-08 22:27:45,15.08858806,9.32e-05,53.2179,157.6305,80.9477,279.162,-6.7099e-05,-1.356e-05,0.0,0 STARLINK-4462,1 53781U 22111J   23067.93594441 -.00001356  00000-0 -67099-4 0  9990,2 53781  53.2179 157.6305 0000932  80.9477 279.1620 15.08858806 27318,6917.823,95.436,540.333,539.043,0.0
53781.0,STARLINK-4462,PAYLOAD,2023-03-09 15:56:58,15.08870758,9.06e-05,53.2187,154.3616,123.0334,237.0745,0.00021223,3.094e-05,0.0,0 STARLINK-4462,1 53781U 22111J   23068.66457127  .00003094  00000-0  21223-3 0  9997,2 53781  53.2187 154.3616 0000906 123.0334 237.0745 15.08870758 27421,6917.786,95.436,540.278,539.025,0.0
53781.0,STARLINK-4462,PAYLOAD,2023-03-09 22:18:34,15.08828414,0.0001058,53.2182,153.1739,112.1906,247.9199,5.0066e-05,5.09e-06,0.0,0 STARLINK-4462,1 53781U 22111J   23068.92956299  .00000509  00000-0  50066-4 0  9996,2 53781  53.2182 153.1739 0001058 112.1906 247.9199 15.08828414 27461,6917.916,95.438,540.513,539.049,0.0
53781.0,STARLINK-4462,PAYLOAD,2023-03-10 11:01:38,15.08844805,0.0001441,53.218,150.7918,117.9385,242.1753,5.0052e-06,-2.08e-06,0.0,0 STARLINK-4462,1 53781U 22111J   23069.45947659 -.00000208  00000-0  50052-5 0  9998,2 53781  53.2180 150.7918 0001441 117.9385 242.1753 15.08844805 27545,6917.866,95.437,540.728,538.734,0.0
53781.0,STARLINK-4462,PAYLOAD,2023-03-10 12:37:00,15.08862785,0.00013,53.2178,150.4944,121.0481,239.0639,0.0001684,2.395e-05,0.0,0 STARLINK-4462,1 53781U 22111J   23069.52569963  .00002395  00000-0  16840-3 0  9997,2 53781  53.2178 150.4944 0001300 121.0481 239.0639 15.08862785 27551,6917.811,95.436,540.575,538.776,0.0
